[Satellite]
VERSION=1.1
NAME=STARLINK-5234
NICKNAME=STARLINK-5234
TLE1=1 54197U 22141AS  22321.58334491  .00047472  00000+0  34110-3 0  9998
TLE2=2 54197  53.2186  42.2334 0002718  20.5601 114.0233 15.73173531  1307
STATUS=0
